H1 CPF  1  DLR 2022 11 21 13  8252 technosat            
H2  1704205 6203    42829 2022 11 21 00 00 00 2022 11 28 00 00 00    60 1 1  0 0 0
H9
10 0 59905  28800.000000  0      -2434923.141       1281648.136      -6404632.283
10 0 59905  28860.000000  0      -2007558.872       1235511.253      -6560612.659
10 0 59905  28920.000000  0      -1572215.280       1180416.853      -6688869.736
10 0 59905  28980.000000  0      -1130799.310       1116536.964      -6788875.005
10 0 59905  29040.000000  0       -685239.642       1044096.753      -6860218.368
10 0 59905  29100.000000  0       -237478.403        963373.734      -6902609.505
10 0 59905  29160.000000  0        210537.055        874696.703      -6915878.877
10 0 59905  29220.000000  0        656862.448        778444.377      -6899978.389
10 0 59905  29280.000000  0       1099564.958        675043.762      -6854981.533
10 0 59905  29340.000000  0       1536731.488        564968.264      -6781082.901
10 0 59905  29400.000000  0       1966476.717        448735.544      -6678597.294
10 0 59905  29460.000000  0       2386951.035        326905.152      -6547958.464
10 0 59905  29520.000000  0       2796348.439        200075.950      -6389717.416
10 0 59905  29580.000000  0       3192914.205         68883.264      -6204540.136
10 0 59905  29640.000000  0       3574952.254        -66004.206      -5993204.946
10 0 59905  29700.000000  0       3940832.327       -203887.649      -5756599.446
10 0 59905  29760.000000  0       4288996.894       -344041.550      -5495717.085
10 0 59905  29820.000000  0       4617967.897       -485717.344      -5211653.326
10 0 59905  29880.000000  0       4926353.186       -628147.241      -4905601.276
10 0 59905  29940.000000  0       5212852.522       -770548.160      -4578846.884
10 0 59905  30000.000000  0       5476263.221       -912125.815      -4232763.784
10 0 59905  30060.000000  0       5715485.404      -1052078.895      -3868807.744
10 0 59905  30120.000000  0       5929526.827      -1189603.362      -3488510.728
10 0 59905  30180.000000  0       6117507.222      -1323896.798      -3093474.603
10 0 59905  30240.000000  0       6278662.191      -1454162.815      -2685364.529
10 0 59905  30300.000000  0       6412346.584      -1579615.476      -2265902.005
10 0 59905  30360.000000  0       6518037.319      -1699483.716      -1836857.628
10 0 59905  30420.000000  0       6595335.641      -1813015.718      -1400043.622
10 0 59905  30480.000000  0       6643968.812      -1919483.215       -957306.144
10 0 59905  30540.000000  0       6663791.236      -2018185.729       -510517.434
10 0 59905  30600.000000  0       6654784.994      -2108454.724        -61567.784
10 0 59905  30660.000000  0       6617059.762      -2189657.601        387642.607
10 0 59905  30720.000000  0       6550852.095      -2261201.514        835211.844
10 0 59905  30780.000000  0       6456524.123      -2322536.989       1279244.536
10 0 59905  30840.000000  0       6334561.661      -2373161.395       1717860.000
10 0 59905  30900.000000  0       6185571.667      -2412622.170       2149200.388
10 0 59905  30960.000000  0       6010279.215      -2440519.772       2571438.669
10 0 59905  31020.000000  0       5809523.896      -2456510.357       2982786.549
10 0 59905  31080.000000  0       5584255.588      -2460308.182       3381502.139
10 0 59905  31140.000000  0       5335529.788      -2451687.728       3765897.325
10 0 59905  31200.000000  0       5064502.498      -2430485.484       4134344.899
10 0 59905  31260.000000  0       4772424.743      -2396601.425       4485285.389
10 0 59905  31320.000000  0       4460636.719      -2350000.206       4817233.661
10 0 59905  31380.000000  0       4130561.472      -2290712.032       5128785.227
10 0 59905  31440.000000  0       3783698.167      -2218833.194       5418622.114
10 0 59905  31500.000000  0       3421615.088      -2134526.231       5685518.280
10 0 59905  31560.000000  0       3045942.425      -2038019.755       5928344.609
10 0 59905  31620.000000  0       2658364.891      -1929607.961       6146073.522
10 0 59905  31680.000000  0       2260614.090      -1809649.853       6337783.194
10 0 59905  31740.000000  0       1854460.736      -1678568.111       6502661.279
10 0 59905  31800.000000  0       1441706.775      -1536847.652       6640008.247
10 0 59905  31860.000000  0       1024177.343      -1385033.863       6749240.232
10 0 59905  31920.000000  0        603712.733      -1223730.515       6829891.377
10 0 59905  31980.000000  0        182160.350      -1053597.384       6881615.763
10 0 59905  32040.000000  0       -238633.370       -875347.574       6904188.818
10 0 59905  32100.000000  0       -656830.926       -689744.602       6897508.293
10 0 59905  32160.000000  0      -1070611.732       -497599.181       6861594.831
10 0 59905  32220.000000  0      -1478180.009       -299765.714       6796591.974
10 0 59905  32280.000000  0      -1877772.521        -97138.561       6702765.735
10 0 59905  32340.000000  0      -2267666.194        109351.950       6580503.719
10 0 59905  32400.000000  0      -2646185.599        318743.737       6430313.740
10 0 59905  32460.000000  0      -3011710.210        530047.385       6252821.949
10 0 59905  32520.000000  0      -3362681.459        742250.752       6048770.524
10 0 59905  32580.000000  0      -3697609.590        954323.766       5819014.844
10 0 59905  32640.000000  0      -4015080.198       1165223.369       5564520.162
10 0 59905  32700.000000  0      -4313760.474       1373898.604       5286357.807
10 0 59905  32760.000000  0      -4592405.083       1579295.849       4985700.890
10 0 59905  32820.000000  0      -4849861.684       1780364.134       4663819.546
10 0 59905  32880.000000  0      -5085076.024       1976060.514       4322075.712
10 0 59905  32940.000000  0      -5297096.584       2165355.463       3961917.460
10 0 59905  33000.000000  0      -5485078.726       2347238.270       3584872.928
10 0 59905  33060.000000  0      -5648288.394       2520722.422       3192543.898
10 0 59905  33120.000000  0      -5786105.311       2684850.931       2786598.958
10 0 59905  33180.000000  0      -5898025.623       2838701.560       2368766.341
10 0 59905  33240.000000  0      -5983664.035       2981391.952       1940826.439
10 0 59905  33300.000000  0      -6042755.363       3112084.629       1504603.971
10 0 59905  33360.000000  0      -6075155.411       3229991.756       1061959.877
10 0 59905  33420.000000  0      -6080841.200       3334379.653        614783.097
10 0 59905  33480.000000  0      -6059910.686       3424573.097        164982.240
10 0 59905  33540.000000  0      -6012581.849       3499959.326       -285522.961
10 0 59905  33600.000000  0      -5939191.122       3559991.696       -734810.142
10 0 59905  33660.000000  0      -5840191.421       3604193.100      -1180962.845
10 0 59905  33720.000000  0      -5716149.421       3632159.004      -1622079.154
10 0 59905  33780.000000  0      -5567742.220       3643560.082      -2056280.160
10 0 59905  33840.000000  0      -5395753.477       3638144.404      -2481718.229
10 0 59905  33900.000000  0      -5201069.137       3615739.305      -2896585.072
10 0 59905  33960.000000  0      -4984672.615       3576252.837      -3299119.674
10 0 59905  34020.000000  0      -4747639.469       3519674.741      -3687615.885
10 0 59905  34080.000000  0      -4491131.765       3446077.041      -4060429.625
10 0 59905  34140.000000  0      -4216392.117       3355614.231      -4415985.835
10 0 59905  34200.000000  0      -3924737.346       3248523.062      -4752785.095
10 0 59905  34260.000000  0      -3617551.813       3125121.876      -5069409.740
10 0 59905  34320.000000  0      -3296280.657       2985809.574      -5364529.541
10 0 59905  34380.000000  0      -2962422.850       2831064.252      -5636907.084
10 0 59905  34440.000000  0      -2617524.008       2661441.438      -5885402.742
10 0 59905  34500.000000  0      -2263169.029       2477571.941      -6108979.161
10 0 59905  34560.000000  0      -1900974.650       2280159.309      -6306705.236
10 0 59905  34620.000000  0      -1532581.990       2069976.968      -6477759.557
10 0 59905  34680.000000  0      -1159649.172       1847865.114      -6621433.431
10 0 59905  34740.000000  0       -783843.894       1614727.288      -6737133.555
10 0 59905  34800.000000  0       -406835.987       1371526.575      -6824384.110
10 0 59905  34860.000000  0        -30290.180       1119281.625      -6882828.337
10 0 59905  34920.000000  0        344141.039        859062.446      -6912229.859
10 0 59905  34980.000000  0        714824.599        591985.895      -6912473.565
10 0 59905  35040.000000  0       1080153.914        319210.897      -6883565.906
10 0 59905  35100.000000  0       1438555.701         41933.465      -6825634.665
10 0 59905  35160.000000  0       1788496.568       -238618.457      -6738928.295
10 0 59905  35220.000000  0       2128489.374       -521190.281      -6623814.901
10 0 59905  35280.000000  0       2457099.466       -804506.293      -6480780.828
10 0 59905  35340.000000  0       2772950.679      -1087275.315      -6310428.645
10 0 59905  35400.000000  0       3074730.964      -1368196.415      -6113474.716
10 0 59905  35460.000000  0       3361197.748      -1645964.720      -5890746.477
10 0 59905  35520.000000  0       3631183.121      -1919277.414      -5643179.288
10 0 59905  35580.000000  0       3883598.696      -2186839.814      -5371812.709
10 0 59905  35640.000000  0       4117440.040      -2447371.462      -5077786.346
10 0 59905  35700.000000  0       4331790.737      -2699612.222      -4762335.300
10 0 59905  35760.000000  0       4525826.046      -2942328.324      -4426785.206
10 0 59905  35820.000000  0       4698816.186      -3174318.357      -4072546.926
10 0 59905  35880.000000  0       4850129.232      -3394419.186      -3701110.851
10 0 59905  35940.000000  0       4979233.588      -3601511.787      -3314040.822
99
